NORAD_CAT_ID,OBJECT_NAME,OBJECT_TYPE,EPOCH,MEAN_MOTION,ECCENTRICITY,INCLINATION,RA_OF_ASC_NODE,ARG_OF_PERICENTER,MEAN_ANOMALY,BSTAR,MEAN_MOTION_DOT,MEAN_MOTION_DDOT,TLE_LINE0,TLE_LINE1,TLE_LINE2,SEMIMAJOR_AXIS,PERIOD,APOGEE,PERIGEE,DECAYED
53620.0,STARLINK-4615,PAYLOAD,2024-03-28 23:25:01,15.08856231,0.0001525,53.2162,184.4745,102.0208,258.0955,0.00021304,3.106e-05,0.0,0 STARLINK-4615,1 53620U 22104AJ  24088.97571671  .00003106  00000-0  21304-3 0  9993,2 53620  53.2162 184.4745 0001525 102.0208 258.0955 15.08856231 87778,6917.831,95.437,540.751,538.641,0.0
53620.0,STARLINK-4615,PAYLOAD,2024-03-29 12:08:07,15.08849111,0.0001866,53.2179,182.0972,105.28,254.8398,-4.6403e-06,-3.62e-06,0.0,0 STARLINK-4615,1 53620U 22104AJ  24089.50563696 -.00000362  00000-0 -46403-5 0  9993,2 53620  53.2179 182.0972 0001866 105.2800 254.8398 15.08849111 87856,6917.853,95.437,541.008,538.427,0.0
53620.0,STARLINK-4615,PAYLOAD,2024-03-29 15:18:53,15.08858052,0.0001718,53.2164,181.5003,108.809,251.3089,0.00018535,2.664e-05,0.0,0 STARLINK-4615,1 53620U 22104AJ  24089.63811362  .00002664  00000-0  18535-3 0  9991,2 53620  53.2164 181.5003 0001718 108.8090 251.3089 15.08858052 88556,6917.825,95.436,540.879,538.502,0.0
53620.0,STARLINK-4615,PAYLOAD,2024-03-30 05:37:21,15.08839748,0.0001775,53.2159,178.8254,87.7474,272.3721,-1.7872e-05,-5.73e-06,0.0,0 STARLINK-4615,1 53620U 22104AJ  24090.23427993 -.00000573  00000-0 -17872-4 0  9995,2 53620  53.2159 178.8254 0001775  87.7474 272.3721 15.08839748 87962,6917.881,95.438,540.974,538.518,0.0
53620.0,STARLINK-4615,PAYLOAD,2024-03-30 11:58:54,15.08840686,0.0001184,53.214,177.6344,89.4684,270.6444,2.3405e-05,8.5e-07,0.0,0 STARLINK-4615,1 53620U 22104AJ  24090.49924085  .00000085  00000-0  23405-4 0  9992,2 53620  53.2140 177.6344 0001184  89.4684 270.6444 15.08840686 88681,6917.878,95.438,540.562,538.924,0.0
53620.0,STARLINK-4615,PAYLOAD,2024-03-31 11:49:41,15.08844161,0.0001309,53.2142,173.1757,83.747,276.3671,0.00015872,2.239e-05,0.0,0 STARLINK-4615,1 53620U 22104AJ  24091.49283993  .00002239  00000-0  15872-3 0  9990,2 53620  53.2142 173.1757 0001309  83.7470 276.3671 15.08844161 88150,6917.868,95.437,540.638,538.827,0.0
53620.0,STARLINK-4615,PAYLOAD,2024-04-01 11:40:29,15.08831063,0.0001371,53.2181,168.7139,101.4124,258.7023,0.00015826,2.231e-05,0.0,0 STARLINK-4615,1 53620U 22104AJ  24092.48645033  .00002231  00000-0  15826-3 0  9998,2 53620  53.2181 168.7139 0001371 101.4124 258.7023 15.08831063 88309,6917.908,95.438,540.721,538.824,0.0
53620.0,STARLINK-4615,PAYLOAD,2024-04-02 05:09:43,15.08842226,0.0001377,53.2174,165.4424,102.5482,257.5664,0.00025461,3.767e-05,0.0,0 STARLINK-4615,1 53620U 22104AJ  24093.21508535  .00003767  00000-0  25461-3 0  9996,2 53620  53.2174 165.4424 0001377 102.5482 257.5664 15.08842226 88410,6917.874,95.437,540.691,538.786,0.0
53620.0,STARLINK-4615,PAYLOAD,2024-04-02 11:31:15,15.08851589,0.0001466,53.2158,164.2547,92.2131,267.9029,0.00034031,5.134e-05,0.0,0 STARLINK-4615,1 53620U 22104AJ  24093.48004273  .00005134  00000-0  34031-3 0  9998,2 53620  53.2158 164.2547 0001466  92.2131 267.9029 15.08851589 89132,6917.845,95.437,540.724,538.696,0.0
53620.0,STARLINK-4615,PAYLOAD,2024-04-02 21:03:34,15.08845303,0.0001312,53.2149,162.4696,92.8634,267.2508,0.00017477,2.495e-05,0.0,0 STARLINK-4615,1 53620U 22104AJ  24093.87748297  .00002495  00000-0  17477-3 0  9994,2 53620  53.2149 162.4696 0001312  92.8634 267.2508 15.08845303 89199,6917.864,95.437,540.637,538.822,0.0
53620.0,STARLINK-4615,PAYLOAD,2024-04-03 05:00:30,15.08839649,0.0001514,53.2161,160.9831,96.8372,263.2792,0.00011316,1.513e-05,0.0,0 STARLINK-4615,1 53620U 22104AJ  24094.20868571  .00001513  00000-0  11316-3 0  9996,2 53620  53.2161 160.9831 0001514  96.8372 263.2792 15.08839649 88561,6917.881,95.438,540.794,538.699,0.0
53620.0,STARLINK-4615,PAYLOAD,2024-04-03 11:22:03,15.08839364,0.000148,53.2165,159.7939,98.8472,261.2688,0.00017494,2.497e-05,0.0,0 STARLINK-4615,1 53620U 22104AJ  24094.47364592  .00002497  00000-0  17494-3 0  9994,2 53620  53.2165 159.7939 0001480  98.8472 261.2688 15.08839364 89281,6917.882,95.438,540.771,538.723,0.0
53620.0,STARLINK-4615,PAYLOAD,2024-04-03 20:54:24,15.08794522,0.0001475,53.2155,158.0106,93.3138,266.8023,-0.00055802,-9.147e-05,0.0,0 STARLINK-4615,1 53620U 22104AJ  24094.87111473 -.00009147  00000-0 -55802-3 0  9992,2 53620  53.2155 158.0106 0001475  93.3138 266.8023 15.08794522 88662,6918.019,95.44,540.905,538.864,0.0
53620.0,STARLINK-4615,PAYLOAD,2024-04-04 11:12:51,15.08836262,0.0001435,53.2164,155.3351,104.3426,255.7726,1.5406e-05,-4.3e-07,0.0,0 STARLINK-4615,1 53620U 22104AJ  24095.46726324 -.00000043  00000-0  15406-4 0  9997,2 53620  53.2164 155.3351 0001435 104.3426 255.7726 15.08836262 88758,6917.892,95.438,540.75,538.764,0.0
53620.0,STARLINK-4615,PAYLOAD,2024-04-04 20:45:09,15.0884822,0.0001323,53.2164,153.5475,96.0193,264.095,7.0636e-05,8.37e-06,0.0,0 STARLINK-4615,1 53620U 22104AJ  24095.86469250  .00000837  00000-0  70636-4 0  9999,2 53620  53.2164 153.5475 0001323  96.0193 264.0950 15.08848220 88815,6917.855,95.437,540.635,538.805,0.0
53620.0,STARLINK-4615,PAYLOAD,2024-04-05 11:03:37,15.08860187,0.0001383,53.2157,150.8725,96.8039,263.311,0.00049787,7.649e-05,0.0,0 STARLINK-4615,1 53620U 22104AJ  24096.46085000  .00007649  00000-0  49787-3 0  9993,2 53620  53.2157 150.8725 0001383  96.8039 263.3110 15.08860187 89589,6917.819,95.436,540.64,538.727,0.0
53620.0,STARLINK-4615,PAYLOAD,2024-04-05 20:35:56,15.08854146,0.0001347,53.215,149.0872,89.408,270.7066,0.00039972,6.082e-05,0.0,0 STARLINK-4615,1 53620U 22104AJ  24096.85829165  .00006082  00000-0  39972-3 0  9999,2 53620  53.2150 149.0872 0001347  89.4080 270.7066 15.08854146 89646,6917.837,95.437,540.634,538.77,0.0
53620.0,STARLINK-4615,PAYLOAD,2024-04-06 02:57:28,15.08856446,0.0001564,53.2167,147.9011,85.1817,274.9354,0.00018008,2.58e-05,0.0,0 STARLINK-4615,1 53620U 22104AJ  24097.12324843  .00002580  00000-0  18008-3 0  9999,2 53620  53.2167 147.9011 0001564  85.1817 274.9354 15.08856446 89009,6917.83,95.437,540.777,538.613,0.0
53620.0,STARLINK-4615,PAYLOAD,2024-04-06 09:19:01,15.08850448,0.0001647,53.2161,146.7085,87.3997,272.7183,2.0531e-05,3.9e-07,0.0,0 STARLINK-4615,1 53620U 22104AJ  24097.38821041  .00000039  00000-0  20531-4 0  9991,2 53620  53.2161 146.7085 0001647  87.3997 272.7183 15.08850448 89042,6917.848,95.437,540.853,538.574,0.0
53620.0,STARLINK-4615,PAYLOAD,2024-04-06 20:26:43,15.08849728,0.000168,53.2159,144.6283,87.5658,272.5526,9.3572e-08,-2.87e-06,0.0,0 STARLINK-4615,1 53620U 22104AJ  24097.85188801 -.00000287  00000-0  93572-7 0  9997,2 53620  53.2159 144.6283 0001680  87.5658 272.5526 15.08849728 89799,6917.851,95.437,540.878,538.553,0.0
53620.0,STARLINK-4615,PAYLOAD,2024-04-07 09:09:48,15.08850918,0.0001857,53.2182,142.249,84.0268,276.0936,-6.4719e-05,-1.318e-05,0.0,0 STARLINK-4615,1 53620U 22104AJ  24098.38180995 -.00001318  00000-0 -64719-4 0  9997,2 53620  53.2182 142.2490 0001857  84.0268 276.0936 15.08850918 89870,6917.847,95.437,540.997,538.427,0.0
53620.0,STARLINK-4615,PAYLOAD,2024-04-07 20:17:30,15.08835969,0.0001456,53.215,140.1671,91.8529,268.263,0.00010224,1.339e-05,0.0,0 STARLINK-4615,1 53620U 22104AJ  24098.84549212  .00001339  00000-0  10224-3 0  9991,2 53620  53.2150 140.1671 0001456  91.8529 268.2630 15.08835969 89260,6917.893,95.438,540.765,538.75,0.0
53620.0,STARLINK-4615,PAYLOAD,2024-04-08 09:00:35,15.08839898,0.0001497,53.2153,137.7876,88.2936,271.8227,1.9842e-05,2.8e-07,0.0,0 STARLINK-4615,1 53620U 22104AJ  24099.37540979  .00000028  00000-0  19842-4 0  9991,2 53620  53.2153 137.7876 0001497  88.2936 271.8227 15.08839898 90022,6917.881,95.438,540.781,538.71,0.0
53620.0,STARLINK-4615,PAYLOAD,2024-04-09 02:29:49,15.08841247,0.0001493,53.2158,134.5162,89.3515,270.7648,7.926e-05,9.74e-06,0.0,0 STARLINK-4615,1 53620U 22104AJ  24100.10404645  .00000974  00000-0  79260-4 0  9994,2 53620  53.2158 134.5162 0001493  89.3515 270.7648 15.08841247 89452,6917.877,95.437,540.774,538.709,0.0
53620.0,STARLINK-4615,PAYLOAD,2024-04-09 12:02:08,15.08838397,0.0001432,53.216,132.7321,86.8976,273.218,2.7549e-05,1.51e-06,0.0,0 STARLINK-4615,1 53620U 22104AJ  24100.50149009  .00000151  00000-0  27549-4 0  9998,2 53620  53.2160 132.7321 0001432  86.8976 273.2180 15.08838397 90192,6917.885,95.438,540.741,538.76,0.0
53620.0,STARLINK-4615,PAYLOAD,2024-04-10 11:52:55,15.08842556,0.0001425,53.2163,128.2708,86.1329,273.9826,6.4884e-05,7.45e-06,0.0,0 STARLINK-4615,1 53620U 22104AJ  24101.49508703  .00000745  00000-0  64884-4 0  9999,2 53620  53.2163 128.2708 0001425  86.1329 273.9826 15.08842556 90344,6917.873,95.437,540.723,538.752,0.0
53620.0,STARLINK-4615,PAYLOAD,2024-04-10 18:14:28,15.08838571,0.0001369,53.2158,127.0811,84.1256,275.9893,2.3595e-05,8.8e-07,0.0,0 STARLINK-4615,1 53620U 22104AJ  24101.76005075  .00000088  00000-0  23595-4 0  9997,2 53620  53.2158 127.0811 0001369  84.1256 275.9893 15.08838571 89700,6917.885,95.438,540.697,538.803,0.0
53620.0,STARLINK-4615,PAYLOAD,2024-04-11 08:32:56,15.08833984,0.0001392,53.2158,124.4056,86.621,273.4941,3.4141e-05,2.55e-06,0.0,0 STARLINK-4615,1 53620U 22104AJ  24102.35621486  .00000255  00000-0  34141-4 0  9998,2 53620  53.2158 124.4056 0001392  86.6210 273.4941 15.08833984 90471,6917.899,95.438,540.727,538.801,0.0
53620.0,STARLINK-4615,PAYLOAD,2024-04-12 05:12:57,15.08837098,0.0001437,53.2158,120.5397,88.2858,271.8299,1.2649e-05,-8.7e-07,0.0,0 STARLINK-4615,1 53620U 22104AJ  24103.21733594 -.00000087  00000-0  12649-4 0  9991,2 53620  53.2158 120.5397 0001437  88.2858 271.8299 15.08837098 89928,6917.889,95.438,540.748,538.76,0.0
53620.0,STARLINK-4615,PAYLOAD,2024-04-12 06:48:20,15.08838217,0.0001542,53.2162,120.2415,92.992,267.1249,1.2249e-05,-9.3e-07,0.0,0 STARLINK-4615,1 53620U 22104AJ  24103.28357532 -.00000093  00000-0  12249-4 0  9995,2 53620  53.2162 120.2415 0001542  92.9920 267.1249 15.08838217 90615,6917.886,95.438,540.818,538.684,0.0
